ONEWEB-0258             
1 48976U 21060K   24176.90525167  .00000002  00000+0 -28988-4 0  9999
2 48976  87.9098  12.5853 0001777  84.7590 275.3743 13.16594343144555
ONEWEB-0259             
1 48977U 21060L   24177.50689084 -.00000027  00000+0 -10485-3 0  9996
2 48977  87.9098  12.4503 0001796  79.1515 280.9818 13.16594633145955
ONEWEB-0260             
1 48978U 21060M   24177.49818970 -.00000014  00000+0 -70678-4 0  9990
2 48978  87.9100  12.4809 0002342  99.1961 260.9435 13.16593895145923
ONEWEB-0261             
1 48979U 21060N   24176.93532963  .00000000  00000+0 -34621-4 0  9996
2 48979  87.9102  12.5865 0002417  81.7272 278.4133 13.16594880144624
ONEWEB-0262             
1 48980U 21060P   24176.61233360  .00000108  00000+0  24870-3 0  9994
2 48980  87.9100  12.6150 0001940  72.4208 287.7134 13.16592616145842
ONEWEB-0263             
1 48981U 21060Q   24176.56800877  .00000033  00000+0  51901-4 0  9995
2 48981  87.9103  12.6400 0002222  75.7929 284.3448 13.16595901145801
ONEWEB-0264             
1 48982U 21060R   24177.06120466  .00000068  00000+0  14328-3 0  9990
2 48982  87.9101  12.5536 0001906  85.3386 274.7962 13.16593864145867
ONEWEB-0266             
1 48984U 21060T   24177.08257141  .00000068  00000+0  14428-3 0  9996
2 48984  87.9099  12.5268 0001737  86.9733 273.1597 13.16595565145869
